CCSDS_OMM_VERS = 2.0
CREATION_DATE  = 
ORIGINATOR     = 

OBJECT_NAME    = SL-16 R/B
OBJECT_ID      = 1996-051B
CENTER_NAME    = EARTH
REF_FRAME      = TEME
TIME_SYSTEM    = UTC
MEAN_ELEMENT_THEORY = SGP/SGP4

EPOCH          = 2025-11-12T14:26:21.776352
MEAN_MOTION    = 14.12392928
ECCENTRICITY   = .00181172
INCLINATION    = 70.7604
RA_OF_ASC_NODE = 63.0733
ARG_OF_PERICENTER = 299.3567
MEAN_ANOMALY   = 60.5743

EPHEMERIS_TYPE = 0
CLASSIFICATION_TYPE = U
NORAD_CAT_ID   = 24298
ELEMENT_SET_NO = 999
REV_AT_EPOCH   = 50511
BSTAR          = .37405072E-4
MEAN_MOTION_DOT = .2E-6
MEAN_MOTION_DDOT = 0

CCSDS_OMM_VERS = 2.0
CREATION_DATE  = 
ORIGINATOR     = 

OBJECT_NAME    = ORBVIEW 2 (SEASTAR)
OBJECT_ID      = 1997-037A
CENTER_NAME    = EARTH
REF_FRAME      = TEME
TIME_SYSTEM    = UTC
MEAN_ELEMENT_THEORY = SGP/SGP4

EPOCH          = 2025-11-13T03:36:50.043744
MEAN_MOTION    = 14.35383877
ECCENTRICITY   = .0002988
INCLINATION    = 98.8447
RA_OF_ASC_NODE = 113.4834
ARG_OF_PERICENTER = 59.1253
MEAN_ANOMALY   = 301.0225

EPHEMERIS_TYPE = 0
CLASSIFICATION_TYPE = U
NORAD_CAT_ID   = 24883
ELEMENT_SET_NO = 999
REV_AT_EPOCH   = 49175
BSTAR          = .2961E-3
MEAN_MOTION_DOT = .803E-5
MEAN_MOTION_DDOT = 0

CCSDS_OMM_VERS = 2.0
CREATION_DATE  = 
ORIGINATOR     = 

OBJECT_NAME    = SL-16 R/B
OBJECT_ID      = 1998-043G
CENTER_NAME    = EARTH
REF_FRAME      = TEME
TIME_SYSTEM    = UTC
MEAN_ELEMENT_THEORY = SGP/SGP4

EPOCH          = 2025-11-13T02:50:52.394208
MEAN_MOTION    = 14.26014617
ECCENTRICITY   = .0009832
INCLINATION    = 98.8075
RA_OF_ASC_NODE = 264.7784
ARG_OF_PERICENTER = 359.0767
MEAN_ANOMALY   = 1.0392

EPHEMERIS_TYPE = 0
CLASSIFICATION_TYPE = U
NORAD_CAT_ID   = 25400
ELEMENT_SET_NO = 999
REV_AT_EPOCH   = 42237
BSTAR          = .11722E-3
MEAN_MOTION_DOT = .235E-5
MEAN_MOTION_DDOT = 0

CCSDS_OMM_VERS = 2.0
CREATION_DATE  = 
ORIGINATOR     = 

OBJECT_NAME    = SL-16 R/B
OBJECT_ID      = 1998-045B
CENTER_NAME    = EARTH
REF_FRAME      = TEME
TIME_SYSTEM    = UTC
MEAN_ELEMENT_THEORY = SGP/SGP4

EPOCH          = 2025-11-12T14:29:43.414944
MEAN_MOTION    = 14.16169221
ECCENTRICITY   = .00086617
INCLINATION    = 71.0121
RA_OF_ASC_NODE = 67.7985
ARG_OF_PERICENTER = 218.9940
MEAN_ANOMALY   = 141.0560

EPHEMERIS_TYPE = 0
CLASSIFICATION_TYPE = U
NORAD_CAT_ID   = 25407
ELEMENT_SET_NO = 999
REV_AT_EPOCH   = 41052
BSTAR          = -.18153405E-4
MEAN_MOTION_DOT = -.84E-6
MEAN_MOTION_DDOT = 0

CCSDS_OMM_VERS = 2.0
CREATION_DATE  = 
ORIGINATOR     = 

OBJECT_NAME    = ISS (ZARYA)
OBJECT_ID      = 1998-067A
CENTER_NAME    = EARTH
REF_FRAME      = TEME
TIME_SYSTEM    = UTC
MEAN_ELEMENT_THEORY = SGP/SGP4

EPOCH          = 2025-11-12T22:26:21.947136
MEAN_MOTION    = 15.49593679
ECCENTRICITY   = .0004116
INCLINATION    = 51.6332
RA_OF_ASC_NODE = 290.0154
ARG_OF_PERICENTER = 64.1640
MEAN_ANOMALY   = 295.9772

EPHEMERIS_TYPE = 0
CLASSIFICATION_TYPE = U
NORAD_CAT_ID   = 25544
ELEMENT_SET_NO = 999
REV_AT_EPOCH   = 53823
BSTAR          = .3456E-3
MEAN_MOTION_DOT = .19039E-3
MEAN_MOTION_DDOT = 0

CCSDS_OMM_VERS = 2.0
CREATION_DATE  = 
ORIGINATOR     = 

OBJECT_NAME    = CZ-4B R/B
OBJECT_ID      = 1999-025C
CENTER_NAME    = EARTH
REF_FRAME      = TEME
TIME_SYSTEM    = UTC
MEAN_ELEMENT_THEORY = SGP/SGP4

EPOCH          = 2025-11-13T02:49:34.414752
MEAN_MOTION    = 14.18232762
ECCENTRICITY   = .0036398
INCLINATION    = 98.6814
RA_OF_ASC_NODE = 359.0538
ARG_OF_PERICENTER = 321.4882
MEAN_ANOMALY   = 96.8899

EPHEMERIS_TYPE = 0
CLASSIFICATION_TYPE = U
NORAD_CAT_ID   = 25732
ELEMENT_SET_NO = 999
REV_AT_EPOCH   = 37164
BSTAR          = .12427E-3
MEAN_MOTION_DOT = .214E-5
MEAN_MOTION_DDOT = 0

CCSDS_OMM_VERS = 2.0
CREATION_DATE  = 
ORIGINATOR     = 

OBJECT_NAME    = OKEAN-O
OBJECT_ID      = 1999-039A
CENTER_NAME    = EARTH
REF_FRAME      = TEME
TIME_SYSTEM    = UTC
MEAN_ELEMENT_THEORY = SGP/SGP4

EPOCH          = 2025-11-13T04:18:25.909056
MEAN_MOTION    = 14.80088871
ECCENTRICITY   = .0001433
INCLINATION    = 97.9646
RA_OF_ASC_NODE = 13.1315
ARG_OF_PERICENTER = 67.4555
MEAN_ANOMALY   = 292.6809

EPHEMERIS_TYPE = 0
CLASSIFICATION_TYPE = U
NORAD_CAT_ID   = 25860
ELEMENT_SET_NO = 999
REV_AT_EPOCH   = 41715
BSTAR          = .23922E-3
MEAN_MOTION_DOT = .1761E-4
MEAN_MOTION_DDOT = 0

CCSDS_OMM_VERS = 2.0
CREATION_DATE  = 
ORIGINATOR     = 

OBJECT_NAME    = SL-16 R/B
OBJECT_ID      = 1999-039B
CENTER_NAME    = EARTH
REF_FRAME      = TEME
TIME_SYSTEM    = UTC
MEAN_ELEMENT_THEORY = SGP/SGP4

EPOCH          = 2025-11-13T03:15:09.247680
MEAN_MOTION    = 14.81523892
ECCENTRICITY   = .0013523
INCLINATION    = 98.0169
RA_OF_ASC_NODE = 11.2787
ARG_OF_PERICENTER = 276.3845
MEAN_ANOMALY   = 83.5828

EPHEMERIS_TYPE = 0
CLASSIFICATION_TYPE = U
NORAD_CAT_ID   = 25861
ELEMENT_SET_NO = 999
REV_AT_EPOCH   = 41960
BSTAR          = .19662E-3
MEAN_MOTION_DOT = .149E-4
MEAN_MOTION_DDOT = 0

CCSDS_OMM_VERS = 2.0
CREATION_DATE  = 
ORIGINATOR     = 

OBJECT_NAME    = DELTA 2 R/B
OBJECT_ID      = 1999-041E
CENTER_NAME    = EARTH
REF_FRAME      = TEME
TIME_SYSTEM    = UTC
MEAN_ELEMENT_THEORY = SGP/SGP4

EPOCH          = 2025-11-12T16:30:20.028384
MEAN_MOTION    = 14.11293185
ECCENTRICITY   = .0504846
INCLINATION    = 51.7636
RA_OF_ASC_NODE = 48.3967
ARG_OF_PERICENTER = 3.2117
MEAN_ANOMALY   = 357.1860

EPHEMERIS_TYPE = 0
CLASSIFICATION_TYPE = U
NORAD_CAT_ID   = 25876
ELEMENT_SET_NO = 999
REV_AT_EPOCH   = 34650
BSTAR          = .29391962E-3
MEAN_MOTION_DOT = .1584E-4
MEAN_MOTION_DDOT = 0

CCSDS_OMM_VERS = 2.0
CREATION_DATE  = 
ORIGINATOR     = 

OBJECT_NAME    = HELIOS 1B
OBJECT_ID      = 1999-064A
CENTER_NAME    = EARTH
REF_FRAME      = TEME
TIME_SYSTEM    = UTC
MEAN_ELEMENT_THEORY = SGP/SGP4

EPOCH          = 2025-11-13T03:10:26.749056
MEAN_MOTION    = 14.87104371
ECCENTRICITY   = .0002613
INCLINATION    = 98.1753
RA_OF_ASC_NODE = 210.9234
ARG_OF_PERICENTER = 83.3101
MEAN_ANOMALY   = 276.8411

EPHEMERIS_TYPE = 0
CLASSIFICATION_TYPE = U
NORAD_CAT_ID   = 25977
ELEMENT_SET_NO = 999
REV_AT_EPOCH   = 66793
BSTAR          = .6585E-3
MEAN_MOTION_DOT = .5857E-4
MEAN_MOTION_DDOT = 0

CCSDS_OMM_VERS = 2.0
CREATION_DATE  = 
ORIGINATOR     = 

OBJECT_NAME    = TERRA
OBJECT_ID      = 1999-068A
CENTER_NAME    = EARTH
REF_FRAME      = TEME
TIME_SYSTEM    = UTC
MEAN_ELEMENT_THEORY = SGP/SGP4

EPOCH          = 2025-11-13T03:29:21.566400
MEAN_MOTION    = 14.60902584
ECCENTRICITY   = .0002394
INCLINATION    = 97.9791
RA_OF_ASC_NODE = 9.9085
ARG_OF_PERICENTER = 160.8078
MEAN_ANOMALY   = 256.7305

EPHEMERIS_TYPE = 0
CLASSIFICATION_TYPE = U
NORAD_CAT_ID   = 25994
ELEMENT_SET_NO = 999
REV_AT_EPOCH   = 37806
BSTAR          = .26736E-3
MEAN_MOTION_DOT = .1264E-4
MEAN_MOTION_DDOT = 0

CCSDS_OMM_VERS = 2.0
CREATION_DATE  = 
ORIGINATOR     = 

OBJECT_NAME    = SL-16 R/B
OBJECT_ID      = 2000-006B
CENTER_NAME    = EARTH
REF_FRAME      = TEME
TIME_SYSTEM    = UTC
MEAN_ELEMENT_THEORY = SGP/SGP4

EPOCH          = 2025-11-13T03:42:09.181152
MEAN_MOTION    = 14.15802450
ECCENTRICITY   = .0016932
INCLINATION    = 71.0034
RA_OF_ASC_NODE = 342.8668
ARG_OF_PERICENTER = 350.2835
MEAN_ANOMALY   = 9.7957

EPHEMERIS_TYPE = 0
CLASSIFICATION_TYPE = U
NORAD_CAT_ID   = 26070
ELEMENT_SET_NO = 999
REV_AT_EPOCH   = 33206
BSTAR          = -.19842E-4
MEAN_MOTION_DOT = -.87E-6
MEAN_MOTION_DDOT = 0

