SL-16 R/B               
1 24298U 96051B   25316.60164093  .00000020  00000+0  37405-4 0  9996
2 24298  70.7604  63.0733 0018117 299.3567  60.5743 14.12392928505110
ORBVIEW 2 (SEASTAR)     
1 24883U 97037A   25317.15057921  .00000803  00000+0  29610-3 0  9990
2 24883  98.8447 113.4834 0002988  59.1253 301.0225 14.35383877491751
SL-16 R/B               
1 25400U 98043G   25317.11866197  .00000235  00000+0  11722-3 0  9997
2 25400  98.8075 264.7784 0009832 359.0767   1.0392 14.26014617422372
SL-16 R/B               
1 25407U 98045B   25316.60397471 -.00000084  00000+0 -18153-4 0  9993
2 25407  71.0121  67.7985 0008661 218.9940 141.0560 14.16169221410520
ISS (ZARYA)             
1 25544U 98067A   25316.93497624  .00019039  00000+0  34560-3 0  9993
2 25544  51.6332 290.0154 0004116  64.1640 295.9772 15.49593679538236
CZ-4B R/B               
1 25732U 99025C   25317.11775943  .00000214  00000+0  12427-3 0  9994
2 25732  98.6814 359.0538 0036398 321.4882  96.8899 14.18232762371643
OKEAN-O                 
1 25860U 99039A   25317.17946654  .00001761  00000+0  23922-3 0  9996
2 25860  97.9646  13.1315 0001433  67.4555 292.6809 14.80088871417150
SL-16 R/B               
1 25861U 99039B   25317.13552370  .00001490  00000+0  19662-3 0  9996
2 25861  98.0169  11.2787 0013523 276.3845  83.5828 14.81523892419609
DELTA 2 R/B             
1 25876U 99041E   25316.68773181  .00001584  00000+0  29392-3 0  9994
2 25876  51.7636  48.3967 0504846   3.2117 357.1860 14.11293185346509
HELIOS 1B               
1 25977U 99064A   25317.13225404  .00005857  00000+0  65850-3 0  9998
2 25977  98.1753 210.9234 0002613  83.3101 276.8411 14.87104371667930
TERRA                   
1 25994U 99068A   25317.14538850  .00001264  00000+0  26736-3 0  9992
2 25994  97.9791   9.9085 0002394 160.8078 256.7305 14.60902584378063
SL-16 R/B               
1 26070U 00006B   25317.15427293 -.00000087  00000+0 -19842-4 0  9996
2 26070  71.0034 342.8668 0016932 350.2835   9.7957 14.15802450332067
